{
  "norad_id": 57320,
  "name": "TROPICS-01",
  "line1": "1 57320U 23084A   24001.50000000  .00005000  00000-0  32000-3 0  9991",
  "line2": "2 57320  29.7000 200.0000 0010000  60.0000 300.0000 15.06000000 50000",
  "epoch": "24001.50000000"
}
